{"type": "FeatureCollection", "features": [ {"type": "Feature", "properties": {"norad_id": 66603, "name": "STARLINK-36048", "group": "last-30-days", "lat": 19.81293519177901, "lon": 14.356694241654477, "alt_km": 385.32120947915155, "timestamp": "2025-12-08T13:49:30.577580+00:00", "meta": {"OBJECT_NAME": "STARLINK-36048", "OBJECT_ID": "2025-270R", "EPOCH": "2025-12-08T06:00:02.999808", "MEAN_MOTION": 15.61399008, "ECCENTRICITY": 0.00014409, "INCLINATION": 42.9989, "RA_OF_ASC_NODE": 219.039, "ARG_OF_PERICENTER": 276.0036, "MEAN_ANOMALY": 200.2305, "EPHEMERIS_TYPE": 0, "CLASSIFICATION_TYPE": "U", "NORAD_CAT_ID": 66603, "ELEMENT_SET_NO": 999, "REV_AT_EPOCH": 358, "BSTAR": -0.02597989, "MEAN_MOTION_DOT": -0.02000458, "MEAN_MOTION_DDOT": 0}, "tle": {"line1": "1 66603U 25270R   25342.25003472 -.02000458  00000+0 -25980-1 0  9991", "line2": "2 66603  42.9989 219.0390 0001440 276.0036 200.2305 15.61399008  3581"}}, "geometry": {"type": "Point", "coordinates": [14.356694241654477, 19.81293519177901]}}, {"type": "Feature", "properties": {"norad_id": 66604, "name": "STARLINK-35977", "group": "last-30-days", "lat": 18.601128857087627, "lon": 15.924306381986442, "alt_km": 385.36172758860994, "timestamp": "2025-12-08T13:49:30.577590+00:00", "meta": {"OBJECT_NAME": "STARLINK-35977", "OBJECT_ID": "2025-270S", "EPOCH": "2025-12-08T06:00:02.999808", "MEAN_MOTION": 15.61400207, "ECCENTRICITY": 0.00013441, "INCLINATION": 42.999, "RA_OF_ASC_NODE": 219.034, "ARG_OF_PERICENTER": 271.698, "MEAN_ANOMALY": 206.4503, "EPHEMERIS_TYPE": 0, "CLASSIFICATION_TYPE": "U", "NORAD_CAT_ID": 66604, "ELEMENT_SET_NO": 999, "REV_AT_EPOCH": 367, "BSTAR": -0.025980442, "MEAN_MOTION_DOT": -0.02000505, "MEAN_MOTION_DDOT": 0}, "tle": {"line1": "1 66604U 25270S   25342.25003472 -.02000505  00000+0 -25980-1 0  9995", "line2": "2 66604  42.9990 219.0340 0001344 271.6980 206.4503 15.61400207  3673"}}, "geometry": {"type": "Point", "coordinates": [15.924306381986442, 18.601128857087627]}}, {"type": "Feature", "properties": {"norad_id": 66605, "name": "STARLINK-36052", "group": "last-30-days", "lat": 17.374102053834807, "lon": 17.47324208274998, "alt_km": 385.6094325953436, "timestamp": "2025-12-08T13:49:30.577604+00:00", "meta": {"OBJECT_NAME": "STARLINK-36052", "OBJECT_ID": "2025-270T", "EPOCH": "2025-12-08T06:00:02.999808", "MEAN_MOTION": 15.61399643, "ECCENTRICITY": 0.00014015, "INCLINATION": 42.999, "RA_OF_ASC_NODE": 219.0298, "ARG_OF_PERICENTER": 274.8372, "MEAN_ANOMALY": 205.2318, "EPHEMERIS_TYPE": 0, "CLASSIFICATION_TYPE": "U", "NORAD_CAT_ID": 66605, "ELEMENT_SET_NO": 999, "REV_AT_EPOCH": 367, "BSTAR": -0.026006926, "MEAN_MOTION_DOT": -0.02002296, "MEAN_MOTION_DDOT": 0}, "tle": {"line1": "1 66605U 25270T   25342.25003472 -.02002296  00000+0 -26007-1 0  9996", "line2": "2 66605  42.9990 219.0298 0001401 274.8372 205.2318 15.61399643  3672"}}, "geometry": {"type": "Point", "coordinates": [17.47324208274998, 17.374102053834807]}}, {"type": "Feature", "properties": {"norad_id": 66606, "name": "STARLINK-36063", "group": "last-30-days", "lat": 14.889813300657842, "lon": 20.503631343134096, "alt_km": 385.8169818397582, "timestamp": "2025-12-08T13:49:30.577614+00:00", "meta": {"OBJECT_NAME": "STARLINK-36063", "OBJECT_ID": "2025-270U", "EPOCH": "2025-12-08T06:00:02.999808", "MEAN_MOTION": 15.61398698, "ECCENTRICITY": 0.00013132, "INCLINATION": 42.999, "RA_OF_ASC_NODE": 219.0197, "ARG_OF_PERICENTER": 270.7757, "MEAN_ANOMALY": 213.1244, "EPHEMERIS_TYPE": 0, "CLASSIFICATION_TYPE": "U", "NORAD_CAT_ID": 66606, "ELEMENT_SET_NO": 999, "REV_AT_EPOCH": 367, "BSTAR": -0.025948071, "MEAN_MOTION_DOT": -0.01998195, "MEAN_MOTION_DDOT": 0}, "tle": {"line1": "1 66606U 25270U   25342.25003472 -.01998195  00000+0 -25948-1 0  9991", "line2": "2 66606  42.9990 219.0197 0001313 270.7757 213.1244 15.61398698  3670"}}, "geometry": {"type": "Point", "coordinates": [20.503631343134096, 14.889813300657842]}}, {"type": "Feature", "properties": {"norad_id": 66607, "name": "STARLINK-35993", "group": "last-30-days", "lat": 16.13637872078626, "lon": 18.99953558079814, "alt_km": 385.76466378975874, "timestamp": "2025-12-08T13:49:30.577626+00:00", "meta": {"OBJECT_NAME": "STARLINK-35993", "OBJECT_ID": "2025-270V", "EPOCH": "2025-12-08T06:00:02.999808", "MEAN_MOTION": 15.61396553, "ECCENTRICITY": 0.00013796, "INCLINATION": 42.9989, "RA_OF_ASC_NODE": 219.0252, "ARG_OF_PERICENTER": 275.2407, "MEAN_ANOMALY": 206.7461, "EPHEMERIS_TYPE": 0, "CLASSIFICATION_TYPE": "U", "NORAD_CAT_ID": 66607, "ELEMENT_SET_NO": 999, "REV_AT_EPOCH": 358, "BSTAR": -0.025917435, "MEAN_MOTION_DOT": -0.01996029, "MEAN_MOTION_DDOT": 0}, "tle": {"line1": "1 66607U 25270V   25342.25003472 -.01996029  00000+0 -25917-1 0  9992", "line2": "2 66607  42.9989 219.0252 0001379 275.2407 206.7461 15.61396553  3582"}}, "geometry": {"type": "Point", "coordinates": [18.99953558079814, 16.13637872078626]}}, {"type": "Feature", "properties": {"norad_id": 66608, "name": "STARLINK-36036", "group": "last-30-days", "lat": 13.630500683676912, "lon": 21.99464659630684, "alt_km": 386.08704459022374, "timestamp": "2025-12-08T13:49:30.577636+00:00", "meta": {"OBJECT_NAME": "STARLINK-36036", "OBJECT_ID": "2025-270W", "EPOCH": "2025-12-08T06:00:02.999808", "MEAN_MOTION": 15.61397642, "ECCENTRICITY": 0.00013665, "INCLINATION": 42.999, "RA_OF_ASC_NODE": 219.0151, "ARG_OF_PERICENTER": 275.2797, "MEAN_ANOMALY": 210.5411, "EPHEMERIS_TYPE": 0, "CLASSIFICATION_TYPE": "U", "NORAD_CAT_ID": 66608, "ELEMENT_SET_NO": 999, "REV_AT_EPOCH": 352, "BSTAR": -0.025961974, "MEAN_MOTION_DOT": -0.01999099, "MEAN_MOTION_DDOT": 0}, "tle": {"line1": "1 66608U 25270W   25342.25003472 -.01999099  00000+0 -25962-1 0  9993", "line2": "2 66608  42.9990 219.0151 0001366 275.2797 210.5411 15.61397642  3523"}}, "geometry": {"type": "Point", "coordinates": [21.99464659630684, 13.630500683676912]}}, {"type": "Feature", "properties": {"norad_id": 66609, "name": "STARLINK-36034", "group": "last-30-days", "lat": 12.363052453032573, "lon": 23.46942313731697, "alt_km": 386.19306870425316, "timestamp": "2025-12-08T13:49:30.577646+00:00", "meta": {"OBJECT_NAME": "STARLINK-36034", "OBJECT_ID": "2025-270X", "EPOCH": "2025-12-08T06:00:02.999808", "MEAN_MOTION": 15.61397123, "ECCENTRICITY": 0.00012992, "INCLINATION": 42.999, "RA_OF_ASC_NODE": 219.011, "ARG_OF_PERICENTER": 273.5331, "MEAN_ANOMALY": 214.2059, "EPHEMERIS_TYPE": 0, "CLASSIFICATION_TYPE": "U", "NORAD_CAT_ID": 66609, "ELEMENT_SET_NO": 999, "REV_AT_EPOCH": 352, "BSTAR": -0.025956655, "MEAN_MOTION_DOT": -0.01998655, "MEAN_MOTION_DDOT": 0}, "tle": {"line1": "1 66609U 25270X   25342.25003472 -.01998655  00000+0 -25957-1 0  9995", "line2": "2 66609  42.9990 219.0110 0001299 273.5331 214.2059 15.61397123  3522"}}, "geometry": {"type": "Point", "coordinates": [23.46942313731697, 12.363052453032573]}}, {"type": "Feature", "properties": {"norad_id": 66610, "name": "STARLINK-35680", "group": "last-30-days", "lat": 11.088794878451125, "lon": 24.927483171558208, "alt_km": 386.410474381988, "timestamp": "2025-12-08T13:49:30.577656+00:00", "meta": {"OBJECT_NAME": "STARLINK-35680", "OBJECT_ID": "2025-270Y", "EPOCH": "2025-12-08T06:00:02.999808", "MEAN_MOTION": 15.61397348, "ECCENTRICITY": 0.00013507, "INCLINATION": 42.9989, "RA_OF_ASC_NODE": 219.0058, "ARG_OF_PERICENTER": 275.9777, "MEAN_ANOMALY": 213.6771, "EPHEMERIS_TYPE": 0, "CLASSIFICATION_TYPE": "U", "NORAD_CAT_ID": 66610, "ELEMENT_SET_NO": 999, "REV_AT_EPOCH": 378, "BSTAR": -0.025935286, "MEAN_MOTION_DOT": -0.01997267, "MEAN_MOTION_DDOT": 0}, "tle": {"line1": "1 66610U 25270Y   25342.25003472 -.01997267  00000+0 -25935-1 0  9991", "line2": "2 66610  42.9989 219.0058 0001350 275.9777 213.6771 15.61397348  3782"}}, "geometry": {"type": "Point", "coordinates": [24.927483171558208, 11.088794878451125]}}, {"type": "Feature", "properties": {"norad_id": 66611, "name": "STARLINK-35583", "group": "last-30-days", "lat": 9.807972087190912, "lon": 26.37268084518541, "alt_km": 386.53009627263236, "timestamp": "2025-12-08T13:49:30.577666+00:00", "meta": {"OBJECT_NAME": "STARLINK-35583", "OBJECT_ID": "2025-270Z", "EPOCH": "2025-12-08T06:00:02.999808", "MEAN_MOTION": 15.61397497, "ECCENTRICITY": 0.0001377, "INCLINATION": 42.9989, "RA_OF_ASC_NODE": 219.0009, "ARG_OF_PERICENTER": 273.7885, "MEAN_ANOMALY": 217.783, "EPHEMERIS_TYPE": 0, "CLASSIFICATION_TYPE": "U", "NORAD_CAT_ID": 66611, "ELEMENT_SET_NO": 999, "REV_AT_EPOCH": 378, "BSTAR": -0.025940856, "MEAN_MOTION_DOT": -0.01997672, "MEAN_MOTION_DDOT": 0}, "tle": {"line1": "1 66611U 25270Z   25342.25003472 -.01997672  00000+0 -25941-1 0  9999", "line2": "2 66611  42.9989 219.0009 0001377 273.7885 217.7830 15.61397497  3780"}}, "geometry": {"type": "Point", "coordinates": [26.37268084518541, 9.807972087190912]}}, {"type": "Feature", "properties": {"norad_id": 66612, "name": "STARLINK-36039", "group": "last-30-days", "lat": 8.519645760956296, "lon": 27.807769451447243, "alt_km": 386.7130420238818, "timestamp": "2025-12-08T13:49:30.577681+00:00", "meta": {"OBJECT_NAME": "STARLINK-36039", "OBJECT_ID": "2025-270AA", "EPOCH": "2025-12-08T06:00:02.999808", "MEAN_MOTION": 15.61396921, "ECCENTRICITY": 0.00013331, "INCLINATION": 42.999, "RA_OF_ASC_NODE": 218.9955, "ARG_OF_PERICENTER": 275.7213, "MEAN_ANOMALY": 217.768, "EPHEMERIS_TYPE": 0, "CLASSIFICATION_TYPE": "U", "NORAD_CAT_ID": 66612, "ELEMENT_SET_NO": 999, "REV_AT_EPOCH": 367, "BSTAR": -0.025929706, "MEAN_MOTION_DOT": -0.01996848, "MEAN_MOTION_DDOT": 0}, "tle": {"line1": "1 66612U 25270AA  25342.25003472 -.01996848  00000+0 -25930-1 0  9992", "line2": "2 66612  42.9990 218.9955 0001333 275.7213 217.7680 15.61396921  3672"}}, "geometry": {"type": "Point", "coordinates": [27.807769451447243, 8.519645760956296]}}]}